[{"OBJECT_NAME":"STARLINK-1559","OBJECT_ID":"2020-055BC","EPOCH":"2026-03-09T05:36:23.522976","MEAN_MOTION":15.29461733,"ECCENTRICITY":0.0004229,"INCLINATION":53.0254,"RA_OF_ASC_NODE":76.0659,"ARG_OF_PERICENTER":33.971,"MEAN_ANOMALY":326.1559,"EPHEMERIS_TYPE":0,"CLASSIFICATION_TYPE":"U","NORAD_CAT_ID":46077,"ELEMENT_SET_NO":999,"REV_AT_EPOCH":30951,"BSTAR":0.0014778793,"MEAN_MOTION_DOT":0.00042685,"MEAN_MOTION_DDOT":0},{"OBJECT_NAME":"STARLINK-32750","OBJECT_ID":"2025-006U","EPOCH":"2026-03-09T00:18:25.672032","MEAN_MOTION":15.27606075,"ECCENTRICITY":0.00012043,"INCLINATION":43.0026,"RA_OF_ASC_NODE":296.0022,"ARG_OF_PERICENTER":282.8978,"MEAN_ANOMALY":77.1739,"EPHEMERIS_TYPE":0,"CLASSIFICATION_TYPE":"U","NORAD_CAT_ID":62572,"ELEMENT_SET_NO":999,"REV_AT_EPOCH":6476,"BSTAR":0.0010087082,"MEAN_MOTION_DOT":0.00027621,"MEAN_MOTION_DDOT":0}]
